{
  "type": "FeatureCollection",
  "features": [
    {
      "type": "Feature",
      "properties": {
        "norad_id": 30893,
        "name": "FENGYUN 1C DEB",
        "group": "fengyun-1c-debris",
        "lat": -10.676198552061788,
        "lon": -160.3130264609918,
        "alt_km": 1028.420880475389,
        "timestamp": "2025-12-20T22:39:10.905330+00:00",
        "meta_object_name": "FENGYUN 1C DEB",
        "meta_object_id": "1999-025AYF",
        "meta_epoch": "2025-12-18T08:03:40.157280",
        "meta_mean_motion": 13.9408223,
        "meta_eccentricity": 0.03091633,
        "meta_inclination": 98.2558,
        "meta_ra_of_asc_node": 18.9197,
        "meta_arg_of_pericenter": 77.2706,
        "meta_mean_anomaly": 348.8675,
        "meta_ephemeris_type": 0,
        "meta_classification_type": "U",
        "meta_norad_cat_id": 30893,
        "meta_element_set_no": 999,
        "meta_rev_at_epoch": 94963,
        "meta_bstar": 0.00050651987,
        "meta_mean_motion_dot": 9.62e-06,
        "meta_mean_motion_ddot": 0,
        "tle_line1": "1 30893U 99025AYF 25352.33588145  .00000962  00000+0  50652-3 0  9999",
        "tle_line2": "2 30893  98.2558  18.9197 0309163  77.2706 348.8675 13.94082230949632"
      },
      "geometry": {
        "type": "Point",
        "coordinates": [
          -160.3130264609918,
          -10.676198552061788
        ]
      }
    },
    {
      "type": "Feature",
      "properties": {
        "norad_id": 30895,
        "name": "FENGYUN 1C DEB",
        "group": "fengyun-1c-debris",
        "lat": 70.97286798718389,
        "lon": -90.10706350849769,
        "alt_km": 624.2987208342101,
        "timestamp": "2025-12-20T22:39:10.905339+00:00",
        "meta_object_name": "FENGYUN 1C DEB",
        "meta_object_id": "1999-025AYH",
        "meta_epoch": "2025-12-20T03:51:08.120160",
        "meta_mean_motion": 14.31562737,
        "meta_eccentricity": 0.02182445,
        "meta_inclination": 98.7182,
        "meta_ra_of_asc_node": 62.6855,
        "meta_arg_of_pericenter": 102.3829,
        "meta_mean_anomaly": 289.3937,
        "meta_ephemeris_type": 0,
        "meta_classification_type": "U",
        "meta_norad_cat_id": 30895,
        "meta_element_set_no": 999,
        "meta_rev_at_epoch": 97899,
        "meta_bstar": 0.00020458307,
        "meta_mean_motion_dot": 6.58e-06,
        "meta_mean_motion_ddot": 0,
        "tle_line1": "1 30895U 99025AYH 25354.16051065  .00000658  00000+0  20458-3 0  9993",
        "tle_line2": "2 30895  98.7182  62.6855 0218244 102.3829 289.3937 14.31562737978992"
      },
      "geometry": {
        "type": "Point",
        "coordinates": [
          -90.10706350849769,
          70.97286798718389
        ]
      }
    },
    {
      "type": "Feature",
      "properties": {
        "norad_id": 30898,
        "name": "FENGYUN 1C DEB",
        "group": "fengyun-1c-debris",
        "lat": 65.55511898175328,
        "lon": -112.42957995492866,
        "alt_km": 462.85824406776374,
        "timestamp": "2025-12-20T22:39:10.905348+00:00",
        "meta_object_name": "FENGYUN 1C DEB",
        "meta_object_id": "1999-025AYL",
        "meta_epoch": "2025-12-20T00:17:11.026752",
        "meta_mean_motion": 15.23031322,
        "meta_eccentricity": 0.00415758,
        "meta_inclination": 99.0251,
        "meta_ra_of_asc_node": 266.9185,
        "meta_arg_of_pericenter": 88.4317,
        "meta_mean_anomaly": 272.1677,
        "meta_ephemeris_type": 0,
        "meta_classification_type": "U",
        "meta_norad_cat_id": 30898,
        "meta_element_set_no": 999,
        "meta_rev_at_epoch": 66482,
        "meta_bstar": 0.0019720641,
        "meta_mean_motion_dot": 0.00047717,
        "meta_mean_motion_ddot": 0,
        "tle_line1": "1 30898U 99025AYL 25354.01193318  .00047717  00000+0  19721-2 0  9995",
        "tle_line2": "2 30898  99.0251 266.9185 0041575  88.4317 272.1677 15.23031322664826"
      },
      "geometry": {
        "type": "Point",
        "coordinates": [
          -112.42957995492866,
          65.55511898175328
        ]
      }
    },
    {
      "type": "Feature",
      "properties": {
        "norad_id": 30899,
        "name": "FENGYUN 1C DEB",
        "group": "fengyun-1c-debris",
        "lat": -53.25263320699946,
        "lon": 60.435399959112,
        "alt_km": 767.3584892527115,
        "timestamp": "2025-12-20T22:39:10.905357+00:00",
        "meta_object_name": "FENGYUN 1C DEB",
        "meta_object_id": "1999-025AYM",
        "meta_epoch": "2025-12-15T13:09:40.279968",
        "meta_mean_motion": 14.33663669,
        "meta_eccentricity": 0.00313683,
        "meta_inclination": 99.1766,
        "meta_ra_of_asc_node": 247.2205,
        "meta_arg_of_pericenter": 282.385,
        "meta_mean_anomaly": 200.066,
        "meta_ephemeris_type": 0,
        "meta_classification_type": "U",
        "meta_norad_cat_id": 30899,
        "meta_element_set_no": 999,
        "meta_rev_at_epoch": 96695,
        "meta_bstar": 0.0014872945,
        "meta_mean_motion_dot": 4.1e-05,
        "meta_mean_motion_ddot": 0,
        "tle_line1": "1 30899U 99025AYM 25349.54838287  .00004100  00000+0  14873-2 0  9991",
        "tle_line2": "2 30899  99.1766 247.2205 0031368 282.3850 200.0660 14.33663669966956"
      },
      "geometry": {
        "type": "Point",
        "coordinates": [
          60.435399959112,
          -53.25263320699946
        ]
      }
    },
    {
      "type": "Feature",
      "properties": {
        "norad_id": 30903,
        "name": "FENGYUN 1C DEB",
        "group": "fengyun-1c-debris",
        "lat": 19.13677959040828,
        "lon": -122.56481284335214,
        "alt_km": 858.0268599083747,
        "timestamp": "2025-12-20T22:39:10.905366+00:00",
        "meta_object_name": "FENGYUN 1C DEB",
        "meta_object_id": "1999-025AYR",
        "meta_epoch": "2025-12-19T10:28:48.530784",
        "meta_mean_motion": 13.9760163,
        "meta_eccentricity": 0.0096627,
        "meta_inclination": 99.3709,
        "meta_ra_of_asc_node": 239.183,
        "meta_arg_of_pericenter": 75.1557,
        "meta_mean_anomaly": 286.0284,
        "meta_ephemeris_type": 0,
        "meta_classification_type": "U",
        "meta_norad_cat_id": 30903,
        "meta_element_set_no": 999,
        "meta_rev_at_epoch": 68798,
        "meta_bstar": -3.3732e-05,
        "meta_mean_motion_dot": -9.5e-07,
        "meta_mean_motion_ddot": 0,
        "tle_line1": "1 30903U 99025AYR 25353.43667281 -.00000095  00000+0 -33732-4 0  9992",
        "tle_line2": "2 30903  99.3709 239.1830 0096627  75.1557 286.0284 13.97601630687984"
      },
      "geometry": {
        "type": "Point",
        "coordinates": [
          -122.56481284335214,
          19.13677959040828
        ]
      }
    },
    {
      "type": "Feature",
      "properties": {
        "norad_id": 30905,
        "name": "FENGYUN 1C DEB",
        "group": "fengyun-1c-debris",
        "lat": -68.31493286537922,
        "lon": -132.82792755140989,
        "alt_km": 879.4942711209915,
        "timestamp": "2025-12-20T22:39:10.905375+00:00",
        "meta_object_name": "FENGYUN 1C DEB",
        "meta_object_id": "1999-025AYT",
        "meta_epoch": "2025-12-19T23:27:42.496416",
        "meta_mean_motion": 14.17868833,
        "meta_eccentricity": 0.00564293,
        "meta_inclination": 98.8891,
        "meta_ra_of_asc_node": 69.3817,
        "meta_arg_of_pericenter": 60.2635,
        "meta_mean_anomaly": 300.4138,
        "meta_ephemeris_type": 0,
        "meta_classification_type": "U",
        "meta_norad_cat_id": 30905,
        "meta_element_set_no": 999,
        "meta_rev_at_epoch": 96225,
        "meta_bstar": 0.00069884909,
        "meta_mean_motion_dot": 1.406e-05,
        "meta_mean_motion_ddot": 0,
        "tle_line1": "1 30905U 99025AYT 25353.97757519  .00001406  00000+0  69885-3 0  9999",
        "tle_line2": "2 30905  98.8891  69.3817 0056429  60.2635 300.4138 14.17868833962256"
      },
      "geometry": {
        "type": "Point",
        "coordinates": [
          -132.82792755140989,
          -68.31493286537922
        ]
      }
    },
    {
      "type": "Feature",
      "properties": {
        "norad_id": 30907,
        "name": "FENGYUN 1C DEB",
        "group": "fengyun-1c-debris",
        "lat": 54.23163643326124,
        "lon": -149.95347448447376,
        "alt_km": 796.3117294638341,
        "timestamp": "2025-12-20T22:39:10.905384+00:00",
        "meta_object_name": "FENGYUN 1C DEB",
        "meta_object_id": "1999-025AYV",
        "meta_epoch": "2025-12-17T21:06:12.131712",
        "meta_mean_motion": 14.15106189,
        "meta_eccentricity": 0.00565923,
        "meta_inclination": 99.9513,
        "meta_ra_of_asc_node": 12.5269,
        "meta_arg_of_pericenter": 124.1859,
        "meta_mean_anomaly": 236.4694,
        "meta_ephemeris_type": 0,
        "meta_classification_type": "U",
        "meta_norad_cat_id": 30907,
        "meta_element_set_no": 999,
        "meta_rev_at_epoch": 1622,
        "meta_bstar": 0.00072022378,
        "meta_mean_motion_dot": 1.366e-05,
        "meta_mean_motion_ddot": 0,
        "tle_line1": "1 30907U 99025AYV 25351.87930708  .00001366  00000+0  72022-3 0  9993",
        "tle_line2": "2 30907  99.9513  12.5269 0056592 124.1859 236.4694 14.15106189 16220"
      },
      "geometry": {
        "type": "Point",
        "coordinates": [
          -149.95347448447376,
          54.23163643326124
        ]
      }
    }
  ]
}